ONEWEB-0685             
1 54679U 22166AP  25356.49243365  .00000068  00000+0  13293-3 0  9999
2 54679  87.9223 279.2333 0001912  87.2960 272.8392 13.21835027148073
ONEWEB-0712             
1 54680U 22166AQ  25356.82305514  .00000057  00000+0  11617-3 0  9999
2 54680  87.9052 263.8880 0002196  68.0175 292.1189 13.16596485148852
ONEWEB-0714             
1 54681U 22166AR  25356.27152603  .00000048  00000+0  84423-4 0  9994
2 54681  87.9226 279.2712 0001974  77.6656 282.4699 13.21825052148167
ONEWEB-0532             
1 55140U 23004A   25355.49458964  .00000063  00000+0  13021-3 0  9991
2 55140  87.9111  41.1903 0001752 112.9250 247.2067 13.17648275144187
ONEWEB-0533             
1 55141U 23004B   25356.81589044 -.00000256  00000+0 -74724-3 0  9996
2 55141  87.8930  25.6973 0001917  96.7687 263.3660 13.12444009144920
ONEWEB-0541             
1 55142U 23004C   25356.55527530  .00000399  00000+0  10908-2 0  9999
2 55142  87.8851  56.2205 0001682 103.4112 256.7204 13.11414188142796
ONEWEB-0543             
1 55143U 23004D   25356.44745772  .00000012  00000+0 -23026-5 0  9999
2 55143  87.9156  10.5924 0001975  85.2625 274.8733 13.18686850146402
ONEWEB-0544             
1 55144U 23004E   25356.44086194  .00000008  00000+0 -12742-4 0  9993
2 55144  87.9168  10.5847 0001614  84.8331 275.2985 13.18685183146401
